{
  "type": "FeatureCollection",
  "features": [
    {
      "type": "Feature",
      "properties": {
        "norad_id": 31033,
        "name": "FENGYUN 1C DEB",
        "group": "fengyun-1c-debris",
        "lat": -81.30480410971305,
        "lon": 54.4592421797372,
        "alt_km": 910.1330304589419,
        "timestamp": "2025-12-26T11:25:45.474174+00:00",
        "meta_object_name": "FENGYUN 1C DEB",
        "meta_object_id": "1999-025BEB",
        "meta_epoch": "2025-12-25T11:12:03.348288",
        "meta_mean_motion": 14.27466706,
        "meta_eccentricity": 0.0154181,
        "meta_inclination": 98.4399,
        "meta_ra_of_asc_node": 337.3578,
        "meta_arg_of_pericenter": 73.3068,
        "meta_mean_anomaly": 54.6243,
        "meta_ephemeris_type": 0,
        "meta_classification_type": "U",
        "meta_norad_cat_id": 31033,
        "meta_element_set_no": 999,
        "meta_rev_at_epoch": 97527,
        "meta_bstar": 0.0002276,
        "meta_mean_motion_dot": 5.91e-06,
        "meta_mean_motion_ddot": 0,
        "tle_line1": "1 31033U 99025BEB 25359.46670542  .00000591  00000+0  22760-3 0  9997",
        "tle_line2": "2 31033  98.4399 337.3578 0154181  73.3068  54.6243 14.27466706975274"
      },
      "geometry": {
        "type": "Point",
        "coordinates": [
          54.4592421797372,
          -81.30480410971305
        ]
      }
    },
    {
      "type": "Feature",
      "properties": {
        "norad_id": 31036,
        "name": "FENGYUN 1C DEB",
        "group": "fengyun-1c-debris",
        "lat": 68.21063510721636,
        "lon": 84.59356034547758,
        "alt_km": 808.9646253748024,
        "timestamp": "2025-12-26T11:25:45.474183+00:00",
        "meta_object_name": "FENGYUN 1C DEB",
        "meta_object_id": "1999-025BEE",
        "meta_epoch": "2025-12-26T03:22:44.154048",
        "meta_mean_motion": 14.49101533,
        "meta_eccentricity": 0.0137842,
        "meta_inclination": 98.9152,
        "meta_ra_of_asc_node": 107.3597,
        "meta_arg_of_pericenter": 224.122,
        "meta_mean_anomaly": 257.813,
        "meta_ephemeris_type": 0,
        "meta_classification_type": "U",
        "meta_norad_cat_id": 31036,
        "meta_element_set_no": 999,
        "meta_rev_at_epoch": 57501,
        "meta_bstar": 0.00027721,
        "meta_mean_motion_dot": 1.131e-05,
        "meta_mean_motion_ddot": 0,
        "tle_line1": "1 31036U 99025BEE 25360.14078882  .00001131  00000+0  27721-3 0  9999",
        "tle_line2": "2 31036  98.9152 107.3597 0137842 224.1220 257.8130 14.49101533575014"
      },
      "geometry": {
        "type": "Point",
        "coordinates": [
          84.59356034547758,
          68.21063510721636
        ]
      }
    },
    {
      "type": "Feature",
      "properties": {
        "norad_id": 31038,
        "name": "FENGYUN 1C DEB",
        "group": "fengyun-1c-debris",
        "lat": 67.2282477629932,
        "lon": 63.136455244671836,
        "alt_km": 760.8071416413377,
        "timestamp": "2025-12-26T11:25:45.474192+00:00",
        "meta_object_name": "FENGYUN 1C DEB",
        "meta_object_id": "1999-025BEG",
        "meta_epoch": "2025-12-25T16:50:14.476416",
        "meta_mean_motion": 14.45874155,
        "meta_eccentricity": 0.00845337,
        "meta_inclination": 99.0115,
        "meta_ra_of_asc_node": 84.5262,
        "meta_arg_of_pericenter": 189.7685,
        "meta_mean_anomaly": 170.1865,
        "meta_ephemeris_type": 0,
        "meta_classification_type": "U",
        "meta_norad_cat_id": 31038,
        "meta_element_set_no": 999,
        "meta_rev_at_epoch": 98422,
        "meta_bstar": 0.00059412726,
        "meta_mean_motion_dot": 2.154e-05,
        "meta_mean_motion_ddot": 0,
        "tle_line1": "1 31038U 99025BEG 25359.70155644  .00002154  00000+0  59413-3 0  9992",
        "tle_line2": "2 31038  99.0115  84.5262 0084533 189.7685 170.1865 14.45874155984223"
      },
      "geometry": {
        "type": "Point",
        "coordinates": [
          63.136455244671836,
          67.2282477629932
        ]
      }
    },
    {
      "type": "Feature",
      "properties": {
        "norad_id": 31040,
        "name": "FENGYUN 1C DEB",
        "group": "fengyun-1c-debris",
        "lat": 44.54932811277883,
        "lon": 178.60379956591478,
        "alt_km": 786.6726571260433,
        "timestamp": "2025-12-26T11:25:45.474200+00:00",
        "meta_object_name": "FENGYUN 1C DEB",
        "meta_object_id": "1999-025BEJ",
        "meta_epoch": "2025-12-24T04:52:38.079264",
        "meta_mean_motion": 14.17685286,
        "meta_eccentricity": 0.00628633,
        "meta_inclination": 98.6587,
        "meta_ra_of_asc_node": 347.7613,
        "meta_arg_of_pericenter": 161.1139,
        "meta_mean_anomaly": 259.7243,
        "meta_ephemeris_type": 0,
        "meta_classification_type": "U",
        "meta_norad_cat_id": 31040,
        "meta_element_set_no": 999,
        "meta_rev_at_epoch": 96869,
        "meta_bstar": 0.00026602335,
        "meta_mean_motion_dot": 5.1e-06,
        "meta_mean_motion_ddot": 0,
        "tle_line1": "1 31040U 99025BEJ 25358.20321851  .00000510  00000+0  26602-3 0  9992",
        "tle_line2": "2 31040  98.6587 347.7613 0062863 161.1139 259.7243 14.17685286968699"
      },
      "geometry": {
        "type": "Point",
        "coordinates": [
          178.60379956591478,
          44.54932811277883
        ]
      }
    },
    {
      "type": "Feature",
      "properties": {
        "norad_id": 31041,
        "name": "FENGYUN 1C DEB",
        "group": "fengyun-1c-debris",
        "lat": 24.712678582379034,
        "lon": 25.33641920878516,
        "alt_km": 846.3585846893193,
        "timestamp": "2025-12-26T11:25:45.474209+00:00",
        "meta_object_name": "FENGYUN 1C DEB",
        "meta_object_id": "1999-025BEK",
        "meta_epoch": "2025-12-26T01:09:01.329984",
        "meta_mean_motion": 14.17952064,
        "meta_eccentricity": 0.0088084,
        "meta_inclination": 99.2042,
        "meta_ra_of_asc_node": 29.1721,
        "meta_arg_of_pericenter": 282.3612,
        "meta_mean_anomaly": 76.7713,
        "meta_ephemeris_type": 0,
        "meta_classification_type": "U",
        "meta_norad_cat_id": 31041,
        "meta_element_set_no": 999,
        "meta_rev_at_epoch": 95678,
        "meta_bstar": 0.0020484,
        "meta_mean_motion_dot": 4.308e-05,
        "meta_mean_motion_ddot": 0,
        "tle_line1": "1 31041U 99025BEK 25360.04793206  .00004308  00000+0  20484-2 0  9995",
        "tle_line2": "2 31041  99.2042  29.1721 0088084 282.3612  76.7713 14.17952064956786"
      },
      "geometry": {
        "type": "Point",
        "coordinates": [
          25.33641920878516,
          24.712678582379034
        ]
      }
    },
    {
      "type": "Feature",
      "properties": {
        "norad_id": 31043,
        "name": "FENGYUN 1C DEB",
        "group": "fengyun-1c-debris",
        "lat": -72.78864079532856,
        "lon": 47.75893640954574,
        "alt_km": 849.2806517921772,
        "timestamp": "2025-12-26T11:25:45.474218+00:00",
        "meta_object_name": "FENGYUN 1C DEB",
        "meta_object_id": "1999-025BEM",
        "meta_epoch": "2025-12-24T14:21:11.088000",
        "meta_mean_motion": 14.0844703,
        "meta_eccentricity": 0.00408946,
        "meta_inclination": 98.7634,
        "meta_ra_of_asc_node": 16.0696,
        "meta_arg_of_pericenter": 330.3974,
        "meta_mean_anomaly": 156.9764,
        "meta_ephemeris_type": 0,
        "meta_classification_type": "U",
        "meta_norad_cat_id": 31043,
        "meta_element_set_no": 999,
        "meta_rev_at_epoch": 96154,
        "meta_bstar": 0.0004246316,
        "meta_mean_motion_dot": 6.9e-06,
        "meta_mean_motion_ddot": 0,
        "tle_line1": "1 31043U 99025BEM 25358.59804500  .00000690  00000+0  42463-3 0  9996",
        "tle_line2": "2 31043  98.7634  16.0696 0040894 330.3974 156.9764 14.08447030961546"
      },
      "geometry": {
        "type": "Point",
        "coordinates": [
          47.75893640954574,
          -72.78864079532856
        ]
      }
    },
    {
      "type": "Feature",
      "properties": {
        "norad_id": 31046,
        "name": "FENGYUN 1C DEB",
        "group": "fengyun-1c-debris",
        "lat": -29.86015825892301,
        "lon": 126.57497553764678,
        "alt_km": 685.0349723649915,
        "timestamp": "2025-12-26T11:25:45.474227+00:00",
        "meta_object_name": "FENGYUN 1C DEB",
        "meta_object_id": "1999-025BEQ",
        "meta_epoch": "2025-12-25T19:51:10.098144",
        "meta_mean_motion": 14.64291331,
        "meta_eccentricity": 0.0044926,
        "meta_inclination": 98.9677,
        "meta_ra_of_asc_node": 120.6673,
        "meta_arg_of_pericenter": 61.8117,
        "meta_mean_anomaly": 89.2281,
        "meta_ephemeris_type": 0,
        "meta_classification_type": "U",
        "meta_norad_cat_id": 31046,
        "meta_element_set_no": 999,
        "meta_rev_at_epoch": 96834,
        "meta_bstar": 0.0036727,
        "meta_mean_motion_dot": 0.00019655,
        "meta_mean_motion_ddot": 0,
        "tle_line1": "1 31046U 99025BEQ 25359.82720021  .00019655  00000+0  36727-2 0  9997",
        "tle_line2": "2 31046  98.9677 120.6673 0044926  61.8117  89.2281 14.64291331968340"
      },
      "geometry": {
        "type": "Point",
        "coordinates": [
          126.57497553764678,
          -29.86015825892301
        ]
      }
    }
  ]
}